{"epoch":1784902576,"count":18312,"objects":[{"id":"53807","name":"BLUEWALKER 3","type":"PAYLOAD","l1":"1 53807U 22111AL  26205.27317177  .00006120  00000-0  16781-3 0  9995","l2":"2 53807  53.2272 219.8050 0004839 304.9289  55.1261 15.38688384215912"}]}